ORBCOMM FM25            
1 25479U 98053E   25080.94639055  .00003453  00000+0  11833-2 0  9990
2 25479  45.0078 320.9195 0003706 157.0570 203.0444 14.37738944385185
ORBCOMM FM26            
1 25480U 98053F   25080.13716850  .00003014  00000+0  10577-2 0  9999
2 25480  45.0073 320.5930 0005353 178.4949 181.5916 14.36847947384986
ORBCOMM FM27            
1 25481U 98053G   25080.93557566  .00003761  00000+0  12845-2 0  9994
2 25481  45.0058 321.2027 0000643  62.1745 297.9168 14.37753338385113
ORBCOMM FM30            
1 25980U 99065A   25080.90170821  .00002745  00000+0  96415-3 0  9991
2 25980  45.0297 142.7932 0008232 280.9815  79.0107 14.37006756321895
ORBCOMM FM31            
1 25981U 99065B   25080.87176929  .00002438  00000+0  86253-3 0  9991
2 25981  45.0211 136.4511 0005251 294.6765  65.3536 14.36967108321440
ORBCOMM FM32            
1 25982U 99065C   25080.92945629  .00003092  00000+0  11019-2 0  9993
2 25982  45.0137 152.1659 0007031 296.4195  63.5931 14.36015002322055
