<?xml version="1.0" encoding="UTF-8"?>
<ndm xmlns:xsi="http://www.w3.org/2001/XMLSchema-instance" xsi:noNamespaceSchemaLocation="https://sanaregistry.org/r/ndmxml_unqualified/ndmxml-2.0.0-master-2.0.xsd">
<omm id="CCSDS_OMM_VERS" version="2.0">
<header><CREATION_DATE/><ORIGINATOR/></header><body><segment><metadata><OBJECT_NAME>ORBCOMM FM25</OBJECT_NAME><OBJECT_ID>1998-053E</OBJECT_ID><CENTER_NAME>EARTH</CENTER_NAME><REF_FRAME>TEME</REF_FRAME><TIME_SYSTEM>UTC</TIME_SYSTEM><MEAN_ELEMENT_THEORY>SGP4</MEAN_ELEMENT_THEORY></metadata><data><meanElements><EPOCH>2025-03-21T22:42:48.143520</EPOCH><MEAN_MOTION>14.37738944</MEAN_MOTION><ECCENTRICITY>.0003706</ECCENTRICITY><INCLINATION>45.0078</INCLINATION><RA_OF_ASC_NODE>320.9195</RA_OF_ASC_NODE><ARG_OF_PERICENTER>157.0570</ARG_OF_PERICENTER><MEAN_ANOMALY>203.0444</MEAN_ANOMALY></meanElements><tleParameters><EPHEMERIS_TYPE>0</EPHEMERIS_TYPE><CLASSIFICATION_TYPE>U</CLASSIFICATION_TYPE><NORAD_CAT_ID>25479</NORAD_CAT_ID><ELEMENT_SET_NO>999</ELEMENT_SET_NO><REV_AT_EPOCH>38518</REV_AT_EPOCH><BSTAR>.11833E-2</BSTAR><MEAN_MOTION_DOT>.3453E-4</MEAN_MOTION_DOT><MEAN_MOTION_DDOT>0</MEAN_MOTION_DDOT></tleParameters></data></segment></body></omm>
<omm id="CCSDS_OMM_VERS" version="2.0">
<header><CREATION_DATE/><ORIGINATOR/></header><body><segment><metadata><OBJECT_NAME>ORBCOMM FM26</OBJECT_NAME><OBJECT_ID>1998-053F</OBJECT_ID><CENTER_NAME>EARTH</CENTER_NAME><REF_FRAME>TEME</REF_FRAME><TIME_SYSTEM>UTC</TIME_SYSTEM><MEAN_ELEMENT_THEORY>SGP4</MEAN_ELEMENT_THEORY></metadata><data><meanElements><EPOCH>2025-03-21T03:17:31.358400</EPOCH><MEAN_MOTION>14.36847947</MEAN_MOTION><ECCENTRICITY>.0005353</ECCENTRICITY><INCLINATION>45.0073</INCLINATION><RA_OF_ASC_NODE>320.5930</RA_OF_ASC_NODE><ARG_OF_PERICENTER>178.4949</ARG_OF_PERICENTER><MEAN_ANOMALY>181.5916</MEAN_ANOMALY></meanElements><tleParameters><EPHEMERIS_TYPE>0</EPHEMERIS_TYPE><CLASSIFICATION_TYPE>U</CLASSIFICATION_TYPE><NORAD_CAT_ID>25480</NORAD_CAT_ID><ELEMENT_SET_NO>999</ELEMENT_SET_NO><REV_AT_EPOCH>38498</REV_AT_EPOCH><BSTAR>.10577E-2</BSTAR><MEAN_MOTION_DOT>.3014E-4</MEAN_MOTION_DOT><MEAN_MOTION_DDOT>0</MEAN_MOTION_DDOT></tleParameters></data></segment></body></omm>
<omm id="CCSDS_OMM_VERS" version="2.0">
<header><CREATION_DATE/><ORIGINATOR/></header><body><segment><metadata><OBJECT_NAME>ORBCOMM FM27</OBJECT_NAME><OBJECT_ID>1998-053G</OBJECT_ID><CENTER_NAME>EARTH</CENTER_NAME><REF_FRAME>TEME</REF_FRAME><TIME_SYSTEM>UTC</TIME_SYSTEM><MEAN_ELEMENT_THEORY>SGP4</MEAN_ELEMENT_THEORY></metadata><data><meanElements><EPOCH>2025-03-21T22:27:13.737024</EPOCH><MEAN_MOTION>14.37753338</MEAN_MOTION><ECCENTRICITY>.0000643</ECCENTRICITY><INCLINATION>45.0058</INCLINATION><RA_OF_ASC_NODE>321.2027</RA_OF_ASC_NODE><ARG_OF_PERICENTER>62.1745</ARG_OF_PERICENTER><MEAN_ANOMALY>297.9168</MEAN_ANOMALY></meanElements><tleParameters><EPHEMERIS_TYPE>0</EPHEMERIS_TYPE><CLASSIFICATION_TYPE>U</CLASSIFICATION_TYPE><NORAD_CAT_ID>25481</NORAD_CAT_ID><ELEMENT_SET_NO>999</ELEMENT_SET_NO><REV_AT_EPOCH>38511</REV_AT_EPOCH><BSTAR>.12845E-2</BSTAR><MEAN_MOTION_DOT>.3761E-4</MEAN_MOTION_DOT><MEAN_MOTION_DDOT>0</MEAN_MOTION_DDOT></tleParameters></data></segment></body></omm>
<omm id="CCSDS_OMM_VERS" version="2.0">
<header><CREATION_DATE/><ORIGINATOR/></header><body><segment><metadata><OBJECT_NAME>ORBCOMM FM30</OBJECT_NAME><OBJECT_ID>1999-065A</OBJECT_ID><CENTER_NAME>EARTH</CENTER_NAME><REF_FRAME>TEME</REF_FRAME><TIME_SYSTEM>UTC</TIME_SYSTEM><MEAN_ELEMENT_THEORY>SGP4</MEAN_ELEMENT_THEORY></metadata><data><meanElements><EPOCH>2025-03-21T21:38:27.589344</EPOCH><MEAN_MOTION>14.37006756</MEAN_MOTION><ECCENTRICITY>.0008232</ECCENTRICITY><INCLINATION>45.0297</INCLINATION><RA_OF_ASC_NODE>142.7932</RA_OF_ASC_NODE><ARG_OF_PERICENTER>280.9815</ARG_OF_PERICENTER><MEAN_ANOMALY>79.0107</MEAN_ANOMALY></meanElements><tleParameters><EPHEMERIS_TYPE>0</EPHEMERIS_TYPE><CLASSIFICATION_TYPE>U</CLASSIFICATION_TYPE><NORAD_CAT_ID>25980</NORAD_CAT_ID><ELEMENT_SET_NO>999</ELEMENT_SET_NO><REV_AT_EPOCH>32189</REV_AT_EPOCH><BSTAR>.96415E-3</BSTAR><MEAN_MOTION_DOT>.2745E-4</MEAN_MOTION_DOT><MEAN_MOTION_DDOT>0</MEAN_MOTION_DDOT></tleParameters></data></segment></body></omm>
<omm id="CCSDS_OMM_VERS" version="2.0">
<header><CREATION_DATE/><ORIGINATOR/></header><body><segment><metadata><OBJECT_NAME>ORBCOMM FM31</OBJECT_NAME><OBJECT_ID>1999-065B</OBJECT_ID><CENTER_NAME>EARTH</CENTER_NAME><REF_FRAME>TEME</REF_FRAME><TIME_SYSTEM>UTC</TIME_SYSTEM><MEAN_ELEMENT_THEORY>SGP4</MEAN_ELEMENT_THEORY></metadata><data><meanElements><EPOCH>2025-03-21T20:55:20.866656</EPOCH><MEAN_MOTION>14.36967108</MEAN_MOTION><ECCENTRICITY>.0005251</ECCENTRICITY><INCLINATION>45.0211</INCLINATION><RA_OF_ASC_NODE>136.4511</RA_OF_ASC_NODE><ARG_OF_PERICENTER>294.6765</ARG_OF_PERICENTER><MEAN_ANOMALY>65.3536</MEAN_ANOMALY></meanElements><tleParameters><EPHEMERIS_TYPE>0</EPHEMERIS_TYPE><CLASSIFICATION_TYPE>U</CLASSIFICATION_TYPE><NORAD_CAT_ID>25981</NORAD_CAT_ID><ELEMENT_SET_NO>999</ELEMENT_SET_NO><REV_AT_EPOCH>32144</REV_AT_EPOCH><BSTAR>.86253E-3</BSTAR><MEAN_MOTION_DOT>.2438E-4</MEAN_MOTION_DOT><MEAN_MOTION_DDOT>0</MEAN_MOTION_DDOT></tleParameters></data></segment></body></omm>
<omm id="CCSDS_OMM_VERS" version="2.0">
<header><CREATION_DATE/><ORIGINATOR/></header><body><segment><metadata><OBJECT_NAME>ORBCOMM FM32</OBJECT_NAME><OBJECT_ID>1999-065C</OBJECT_ID><CENTER_NAME>EARTH</CENTER_NAME><REF_FRAME>TEME</REF_FRAME><TIME_SYSTEM>UTC</TIME_SYSTEM><MEAN_ELEMENT_THEORY>SGP4</MEAN_ELEMENT_THEORY></metadata><data><meanElements><EPOCH>2025-03-21T22:18:25.023456</EPOCH><MEAN_MOTION>14.36015002</MEAN_MOTION><ECCENTRICITY>.0007031</ECCENTRICITY><INCLINATION>45.0137</INCLINATION><RA_OF_ASC_NODE>152.1659</RA_OF_ASC_NODE><ARG_OF_PERICENTER>296.4195</ARG_OF_PERICENTER><MEAN_ANOMALY>63.5931</MEAN_ANOMALY></meanElements><tleParameters><EPHEMERIS_TYPE>0</EPHEMERIS_TYPE><CLASSIFICATION_TYPE>U</CLASSIFICATION_TYPE><NORAD_CAT_ID>25982</NORAD_CAT_ID><ELEMENT_SET_NO>999</ELEMENT_SET_NO><REV_AT_EPOCH>32205</REV_AT_EPOCH><BSTAR>.11019E-2</BSTAR><MEAN_MOTION_DOT>.3092E-4</MEAN_MOTION_DOT><MEAN_MOTION_DDOT>0</MEAN_MOTION_DDOT></tleParameters></data></segment></body></omm>

</ndm>
